[{"OBJECT_NAME":"GOSAT 2 (IBUKI 1)","OBJECT_ID":"2018-084B","EPOCH":"2026-03-09T20:32:04.212384","MEAN_MOTION":14.84242316,"ECCENTRICITY":0.0001478,"INCLINATION":97.8678,"RA_OF_ASC_NODE":181.6299,"ARG_OF_PERICENTER":93.8371,"MEAN_ANOMALY":266.3012,"EPHEMERIS_TYPE":0,"CLASSIFICATION_TYPE":"U","NORAD_CAT_ID":43672,"ELEMENT_SET_NO":999,"REV_AT_EPOCH":39882,"BSTAR":0.00032562653,"MEAN_MOTION_DOT":2.674e-5,"MEAN_MOTION_DDOT":0},{"OBJECT_NAME":"PROITERES","OBJECT_ID":"2012-047B","EPOCH":"2026-03-09T20:04:01.587072","MEAN_MOTION":14.82270708,"ECCENTRICITY":0.0011422,"INCLINATION":98.2359,"RA_OF_ASC_NODE":347.7082,"ARG_OF_PERICENTER":21.2564,"MEAN_ANOMALY":338.9121,"EPHEMERIS_TYPE":0,"CLASSIFICATION_TYPE":"U","NORAD_CAT_ID":38756,"ELEMENT_SET_NO":999,"REV_AT_EPOCH":72759,"BSTAR":0.00018266794,"MEAN_MOTION_DOT":1.403e-5,"MEAN_MOTION_DDOT":0}]
